{
  "type": "FeatureCollection",
  "features": [
    {
      "type": "Feature",
      "properties": {
        "norad_id": 44333,
        "name": "AT&T T-16",
        "group": "intelsat",
        "lat": 0.01963340441131923,
        "lon": 106.26392243629354,
        "alt_km": 35785.86391424997,
        "timestamp": "2025-12-03T08:58:45.667145+00:00",
        "meta_object_name": "AT&T T-16",
        "meta_object_id": "2019-034A",
        "meta_epoch": "2025-12-03T04:00:38.641824",
        "meta_mean_motion": 1.00268541,
        "meta_eccentricity": 4.88e-05,
        "meta_inclination": 0.0307,
        "meta_ra_of_asc_node": 71.0477,
        "meta_arg_of_pericenter": 91.5825,
        "meta_mean_anomaly": 228.9332,
        "meta_ephemeris_type": 0,
        "meta_classification_type": "U",
        "meta_norad_cat_id": 44333,
        "meta_element_set_no": 999,
        "meta_rev_at_epoch": 2366,
        "meta_bstar": 0,
        "meta_mean_motion_dot": -9.6e-07,
        "meta_mean_motion_ddot": 0,
        "tle_line1": "1 44333U 19034A   25337.16711391 -.00000096  00000+0  00000+0 0  9997",
        "tle_line2": "2 44333   0.0307  71.0477 0000488  91.5825 228.9332  1.00268541 23668"
      },
      "geometry": {
        "type": "Point",
        "coordinates": [
          106.26392243629354,
          0.01963340441131923
        ]
      }
    },
    {
      "type": "Feature",
      "properties": {
        "norad_id": 44476,
        "name": "INTELSAT 39 (IS-39)",
        "group": "intelsat",
        "lat": -0.029148038844436522,
        "lon": -90.91226230921185,
        "alt_km": 35788.12890484419,
        "timestamp": "2025-12-03T08:58:45.667157+00:00",
        "meta_object_name": "INTELSAT 39 (IS-39)",
        "meta_object_id": "2019-049B",
        "meta_epoch": "2025-12-03T02:03:57.662784",
        "meta_mean_motion": 1.0027012,
        "meta_eccentricity": 9.05e-05,
        "meta_inclination": 0.0158,
        "meta_ra_of_asc_node": 313.3917,
        "meta_arg_of_pericenter": 200.8805,
        "meta_mean_anomaly": 10.8498,
        "meta_ephemeris_type": 0,
        "meta_classification_type": "U",
        "meta_norad_cat_id": 44476,
        "meta_element_set_no": 999,
        "meta_rev_at_epoch": 2316,
        "meta_bstar": 0,
        "meta_mean_motion_dot": 5.3e-07,
        "meta_mean_motion_ddot": 0,
        "tle_line1": "1 44476U 19049B   25337.08608406  .00000053  00000+0  00000+0 0  9996",
        "tle_line2": "2 44476   0.0158 313.3917 0000905 200.8805  10.8498  1.00270120 23160"
      },
      "geometry": {
        "type": "Point",
        "coordinates": [
          -90.91226230921185,
          -0.029148038844436522
        ]
      }
    },
    {
      "type": "Feature",
      "properties": {
        "norad_id": 46114,
        "name": "GALAXY 30 (G-30)",
        "group": "intelsat",
        "lat": 0.02865628351722647,
        "lon": 82.13314318398706,
        "alt_km": 35795.993919819804,
        "timestamp": "2025-12-03T08:58:45.667169+00:00",
        "meta_object_name": "GALAXY 30 (G-30)",
        "meta_object_id": "2020-056C",
        "meta_epoch": "2025-12-03T04:16:38.815392",
        "meta_mean_motion": 1.0027271,
        "meta_eccentricity": 0.0002442,
        "meta_inclination": 0.0133,
        "meta_ra_of_asc_node": 306.7885,
        "meta_arg_of_pericenter": 305.1486,
        "meta_mean_anomaly": 119.5046,
        "meta_ephemeris_type": 0,
        "meta_classification_type": "U",
        "meta_norad_cat_id": 46114,
        "meta_element_set_no": 999,
        "meta_rev_at_epoch": 1932,
        "meta_bstar": 0,
        "meta_mean_motion_dot": 5.6e-07,
        "meta_mean_motion_ddot": 0,
        "tle_line1": "1 46114U 20056C   25337.17822703  .00000056  00000+0  00000+0 0  9998",
        "tle_line2": "2 46114   0.0133 306.7885 0002442 305.1486 119.5046  1.00272710 19322"
      },
      "geometry": {
        "type": "Point",
        "coordinates": [
          82.13314318398706,
          0.02865628351722647
        ]
      }
    },
    {
      "type": "Feature",
      "properties": {
        "norad_id": 54026,
        "name": "GALAXY 33 (G-33)",
        "group": "intelsat",
        "lat": 0.0366268759619041,
        "lon": 74.13753422197287,
        "alt_km": 35794.018022207936,
        "timestamp": "2025-12-03T08:58:45.667180+00:00",
        "meta_object_name": "GALAXY 33 (G-33)",
        "meta_object_id": "2022-128A",
        "meta_epoch": "2025-12-02T16:34:35.368032",
        "meta_mean_motion": 1.00272458,
        "meta_eccentricity": 0.0001946,
        "meta_inclination": 0.0146,
        "meta_ra_of_asc_node": 335.983,
        "meta_arg_of_pericenter": 271.3406,
        "meta_mean_anomaly": 300.1238,
        "meta_ephemeris_type": 0,
        "meta_classification_type": "U",
        "meta_norad_cat_id": 54026,
        "meta_element_set_no": 999,
        "meta_rev_at_epoch": 1177,
        "meta_bstar": 0,
        "meta_mean_motion_dot": 9.9e-07,
        "meta_mean_motion_ddot": 0,
        "tle_line1": "1 54026U 22128A   25336.69068713  .00000099  00000+0  00000+0 0  9997",
        "tle_line2": "2 54026   0.0146 335.9830 0001946 271.3406 300.1238  1.00272458 11776"
      },
      "geometry": {
        "type": "Point",
        "coordinates": [
          74.13753422197287,
          0.0366268759619041
        ]
      }
    },
    {
      "type": "Feature",
      "properties": {
        "norad_id": 54027,
        "name": "GALAXY 34 (G-34)",
        "group": "intelsat",
        "lat": 0.03447797773142384,
        "lon": 78.13520150746646,
        "alt_km": 35791.52817896144,
        "timestamp": "2025-12-03T08:58:45.667192+00:00",
        "meta_object_name": "GALAXY 34 (G-34)",
        "meta_object_id": "2022-128B",
        "meta_epoch": "2025-12-03T02:06:18.447264",
        "meta_mean_motion": 1.00273327,
        "meta_eccentricity": 0.0001414,
        "meta_inclination": 0.0132,
        "meta_ra_of_asc_node": 328.1022,
        "meta_arg_of_pericenter": 280.0818,
        "meta_mean_anomaly": 86.5825,
        "meta_ephemeris_type": 0,
        "meta_classification_type": "U",
        "meta_norad_cat_id": 54027,
        "meta_element_set_no": 999,
        "meta_rev_at_epoch": 1194,
        "meta_bstar": 0,
        "meta_mean_motion_dot": 7.8e-07,
        "meta_mean_motion_ddot": 0,
        "tle_line1": "1 54027U 22128B   25337.08771351  .00000078  00000+0  00000+0 0  9998",
        "tle_line2": "2 54027   0.0132 328.1022 0001414 280.0818  86.5825  1.00273327 11945"
      },
      "geometry": {
        "type": "Point",
        "coordinates": [
          78.13520150746646,
          0.03447797773142384
        ]
      }
    },
    {
      "type": "Feature",
      "properties": {
        "norad_id": 54243,
        "name": "GALAXY 31 (G-31)",
        "group": "intelsat",
        "lat": 0.03122707637383279,
        "lon": 86.11009630845082,
        "alt_km": 35794.95039188445,
        "timestamp": "2025-12-03T08:58:45.667203+00:00",
        "meta_object_name": "GALAXY 31 (G-31)",
        "meta_object_id": "2022-153A",
        "meta_epoch": "2025-12-03T04:16:38.815392",
        "meta_mean_motion": 1.00271866,
        "meta_eccentricity": 0.0002104,
        "meta_inclination": 0.0124,
        "meta_ra_of_asc_node": 351.7237,
        "meta_arg_of_pericenter": 276.0677,
        "meta_mean_anomaly": 107.6222,
        "meta_ephemeris_type": 0,
        "meta_classification_type": "U",
        "meta_norad_cat_id": 54243,
        "meta_element_set_no": 999,
        "meta_rev_at_epoch": 516,
        "meta_bstar": 0,
        "meta_mean_motion_dot": 0,
        "meta_mean_motion_ddot": 0,
        "tle_line1": "1 54243U 22153A   25337.17822703  .00000000  00000+0  00000+0 0  9999",
        "tle_line2": "2 54243   0.0124 351.7237 0002104 276.0677 107.6222  1.00271866  5160"
      },
      "geometry": {
        "type": "Point",
        "coordinates": [
          86.11009630845082,
          0.03122707637383279
        ]
      }
    },
    {
      "type": "Feature",
      "properties": {
        "norad_id": 54244,
        "name": "GALAXY 32 (G-32)",
        "group": "intelsat",
        "lat": 0.014835737441941292,
        "lon": 116.13617722832335,
        "alt_km": 35796.9826882188,
        "timestamp": "2025-12-03T08:58:45.667215+00:00",
        "meta_object_name": "GALAXY 32 (G-32)",
        "meta_object_id": "2022-153B",
        "meta_epoch": "2025-12-03T03:02:59.506368",
        "meta_mean_motion": 1.00270437,
        "meta_eccentricity": 0.000252,
        "meta_inclination": 0.0101,
        "meta_ra_of_asc_node": 324.9006,
        "meta_arg_of_pericenter": 339.0603,
        "meta_mean_anomaly": 83.0127,
        "meta_ephemeris_type": 0,
        "meta_classification_type": "U",
        "meta_norad_cat_id": 54244,
        "meta_element_set_no": 999,
        "meta_rev_at_epoch": 1117,
        "meta_bstar": 0,
        "meta_mean_motion_dot": -1.55e-06,
        "meta_mean_motion_ddot": 0,
        "tle_line1": "1 54244U 22153B   25337.12707762 -.00000155  00000+0  00000+0 0  9994",
        "tle_line2": "2 54244   0.0101 324.9006 0002520 339.0603  83.0127  1.00270437 11175"
      },
      "geometry": {
        "type": "Point",
        "coordinates": [
          116.13617722832335,
          0.014835737441941292
        ]
      }
    }
  ]
}